HST                     
1 20580U 90037B   21052.49799108  .00000571  00000-0  23644-4 0  9997
2 20580  28.4696 112.2794 0002421 252.7590 233.6849 15.09560808493550
POLAR                   
1 23802U 96013A   21050.14292663  .00000284  00000-0  00000-0 0  9999
2 23802  78.7079 246.7832 6101182 275.1373  22.3131  1.29846398119614
SWAS                    
1 25560U 98071A   21052.59939905  .00000239  00000-0  30932-4 0  9997
2 25560  69.8985 116.7362 0010181 309.2460  50.7791 14.94007602206231
CXO                     
1 25867U 99040B   21054.39647685  .00000695  00000-0  00000-0 0  9990
2 25867  57.6688 259.4912 8143229 226.3479   0.4058  0.37804360 10003
XMM-NEWTON              
1 25989U 99066A   21052.84743715  .00000259  00000-0  00000-0 0  9998
2 25989  70.9526 314.7388 6755468  91.3474   0.1301  0.50131961 13271
TERRA                   
1 25994U 99068A   21052.60353257 -.00000045  00000-0  77393-7 0  9998
2 25994  98.1873 129.0945 0001304  93.1211  43.3795 14.57119711126470
CLUSTER II-FM7 (SAMBA)  
1 26410U 00041A   21054.39257406 -.00000154  00000-0  00000-0 0  9997
2 26410 132.4958 343.5881 4729116 189.5395 359.5936  0.44212918 11697
CLUSTER II-FM6 (SALSA)  
1 26411U 00041B   21054.46063955 -.00000245  00000-0  00000-0 0  9991
2 26411 132.9840 345.2104 6163482 194.6187 359.5344  0.44218659 11732
CLUSTER II-FM5 (RUMBA)  
1 26463U 00045A   21054.45815138 -.00000168  00000-0  00000-0 0  9993
2 26463 136.6202 345.0966 5736902 194.7157 359.5795  0.44218758 11624
CLUSTER II-FM8 (TANGO)  
1 26464U 00045B   21054.39205610 -.00000154  00000-0  00000-0 0  9990
2 26464 132.4895 343.5801 4728389 189.5246 359.5962  0.44219231 11700
ODIN                    
1 26702U 01007A   21052.52169593  .00001067  00000-0  72664-4 0  9998
2 26702  97.5443  71.1666 0012216 130.4408 229.7888 15.08322089 93756
TIMED                   
1 26998U 01055B   21052.18777265  .00000147  00000-0  19935-4 0  9991
2 26998  74.0732 158.0148 0001565 234.1356 125.9679 14.88270587 41449
RHESSI                  
1 27370U 02004A   21052.42622640  .00003288  00000-0  10122-3 0  9991
2 27370  38.0327  93.5305 0012542 214.8308 145.1644 15.34150331 52568
INTEGRAL                
1 27540U 02048A   21050.87426694  .00000489  00000-0  00000-0 0  9997
2 27540  60.8266  93.7146 9002251 297.7489   1.5438  0.37567748 19348
CORIOLIS                
1 27640U 03001A   21052.46983517  .00000011  00000-0  26026-4 0  9998
2 27640  98.7252  64.0633 0014896  44.2861  97.6989 14.19061672938756
SORCE                   
1 27651U 03004A   21052.58144457  .00000167  00000-0  31460-4 0  9998
2 27651  39.9971  20.6081 0022706 329.0533  30.8917 14.89239766981348
MOST                    
1 27843U 03031D   21052.45827306 -.00000006  00000-0  17580-4 0  9998
2 27843  98.7109  62.1106 0011126  95.1631 265.0816 14.20628967914953
SCISAT 1                
1 27858U 03036A   21052.40006566  .00000035  00000-0  99313-5 0  9997
2 27858  73.9323  53.6424 0008706 212.6461 147.4176 14.77330367944396
SWIFT                   
1 28485U 04047A   21052.40808588  .00001086  00000-0  43560-4 0  9990
2 28485  20.5573  81.7888 0010900 327.8875  32.0894 15.04867110890995
FORMOSAT-3 FM6          
1 29047U 06011A   21052.44734671  .00000163  00000-0  80068-4 0  9992
2 29047  71.9799 321.7650 0050501 350.1088   9.9049 14.28794861776872
FORMOSAT-3 FM1          
1 29048U 06011B   21052.47162445  .00000079  00000-0  47519-4 0  9990
2 29048  71.9643 232.3287 0045022 309.3225  50.3924 14.28756097779363
FORMOSAT-3 FM5          
1 29049U 06011C   21052.38926328  .00000105  00000-0  57591-4 0  9990
2 29049  72.0203  45.5625 0035930 332.1479  27.7732 14.28832718775120
FORMOSAT-3 FM3          
1 29050U 06011D   21052.58287456  .00000158  00000-0  43455-4 0  9998
2 29050  72.0165 165.7843 0051495 233.3548 126.2865 14.59018862792669
FORMOSAT-3 FM4          
1 29051U 06011E   21052.45321025  .00000048  00000-0  34599-4 0  9993
2 29051  72.0057 307.0077 0069580 215.4590 144.1911 14.28867565777721
FORMOSAT-3 FM2          
1 29052U 06011F   21052.36476389  .00000064  00000-0  41101-4 0  9993
2 29052  72.0356  22.1340 0042169 292.8489  66.8197 14.28973654775240
CLOUDSAT                
1 29107U 06016A   21052.56920806  .00000112  00000-0  31691-4 0  9996
2 29107  98.2644   5.3901 0001178  59.7474 300.3844 14.62337562788739
CALIPSO                 
1 29108U 06016B   21052.55029981  .00000170  00000-0  43050-4 0  9996
2 29108  98.2622   5.1436 0001361  83.9804 276.1552 14.62505852788743
HINODE (SOLAR-B)        
1 29479U 06041A   21052.42958994  .00000064  00000-0  20962-4 0  9995
2 29479  98.1541  68.1987 0016014 307.7221  52.2530 14.65125510770342
SJ-6C                   
1 29505U 06046A   21052.58400106 -.00000004  00000-0  49217-5 0  9994
2 29505  97.8077  71.3224 0003273 293.5258  66.5637 14.95047480780830
SJ-6D                   
1 29506U 06046B   21052.49676598 -.00000521  00000-0 -44007-4 0  9991
2 29506  97.8284  71.4325 0003105  46.4668 313.6814 14.93574871780344
AGILE                   
1 31135U 07013A   21052.50377104  .00003160  00000-0  60417-4 0  9993
2 31135   2.4682  45.6797 0011275 111.3761 248.7496 15.33127620402939
AIM                     
1 31304U 07015A   21052.43499537  .00001221  00000-0  70926-4 0  9992
2 31304  97.8807 310.1412 0004059 213.9877 146.1094 15.14121072758356
FGRST (GLAST)           
1 33053U 08029A   21052.54887079  .00000550  00000-0  14649-4 0  9999
2 33053  25.5815 203.9095 0012393  12.3550 347.7287 15.11462408700944
WISE                    
1 36119U 09071A   21052.53329175  .00001182  00000-0  42460-4 0  9994
2 36119  97.3000  91.0934 0002040 175.5710 184.5549 15.30606846621890
SDO                     
1 36395U 10005A   21052.21988846 -.00000082  00000-0  00000-0 0  9999
2 36395  30.7534 117.1323 0000591 260.7823 110.3222  1.00276884 40596
CRYOSAT 2               
1 36508U 10013A   21052.60714284  .00000086  00000-0  20644-4 0  9993
2 36508  92.0210 167.9467 0008360  86.2333 273.9830 14.51906115576384
X-SAT                   
1 37389U 11015C   21052.53888422 -.00000052  00000-0 -45006-5 0  9997
2 37389  98.4009 103.5381 0012785 282.0335  77.9412 14.24386233511743
GCOM-W1 (SHIZUKU)       
1 38337U 12025A   21052.35115366  .00000065  00000-0  24509-4 0  9999
2 38337  98.2056 354.7430 0000143 150.3585   7.5006 14.57072060466250
NUSTAR                  
1 38358U 12031A   21051.98676141  .00001013  00000-0  31867-4 0  9999
2 38358   6.0260 263.5074 0012317 235.1461 124.7509 14.88452792473053
NEOSSAT                 
1 39089U 13009D   21052.27936886  .00000031  00000-0  26085-4 0  9990
2 39089  98.4497 254.9096 0010151 268.5918  91.4104 14.34547319418221
IRIS                    
1 39197U 13033A   21052.47982431  .00000153  00000-0  27845-4 0  9996
2 39197  97.9619 237.9245 0028459 142.5995 217.7204 14.78818041412885
HISAKI (SPRINT-A)       
1 39253U 13049A   21052.27767671  .00000100  00000-0  48673-4 0  9995
2 39253  29.7214   9.8833 0137410 118.0866 243.3671 13.55240294367788
CASSIOPE                
1 39265U 13055A   21052.50381761  .00005058  00000-0  14312-3 0  9992
2 39265  80.9664  53.7417 0651654 294.0259  59.4045 14.31340593383403
STSAT-3                 
1 39422U 13066G   21052.54518806  .00000043  00000-0  98597-5 0  9993
2 39422  97.4897  78.5432 0024594  85.2182 275.1882 14.89916934394222
SWARM B                 
1 39451U 13067A   21052.41763591  .00000497  00000-0  20256-4 0  9994
2 39451  87.7571 205.3021 0002676  63.9661 296.1860 15.21923400387821
SWARM A                 
1 39452U 13067B   21052.52169303  .00001870  00000-0  38409-4 0  9993
2 39452  87.3599  39.9899 0003496  97.1484 263.0171 15.45233975407632
SWARM C                 
1 39453U 13067C   21052.52163849  .00001868  00000-0  38374-4 0  9991
2 39453  87.3451  40.4408 0003495  97.1634 263.0021 15.45234616407591
BRITE-CA1 (TORONTO)     
1 40020U 14033L   21052.49384566  .00000118  00000-0  28377-4 0  9993
2 40020  97.7335 232.5007 0087233 358.8670   1.2324 14.66709291357159
OCO 2                   
1 40059U 14035A   21052.52407366  .00000052  00000-0  21606-4 0  9990
2 40059  98.2180 355.6422 0001231  98.7434 261.3904 14.57100390353294
BRITE-PL2 (HEWELIUSZ)   
1 40119U 14049B   21052.23435812  .00000175  00000-0  27082-4 0  9997
2 40119  97.8877 147.9634 0017737  20.6958 339.4971 14.84602755352606
RESURS P2               
1 40360U 14087A   21052.48341032  .00000963  00000-0  31573-4 0  9999
2 40360  97.2326 142.3710 0010021  25.0430 103.2636 15.33999769344485
MMS 1                   
1 40482U 15011A   21047.39583333 -.00001892  00000-0  00000-0 0  9998
2 40482  32.5680 118.4448 8450838  28.9475 334.0400  0.28549406 11919
MMS 2                   
1 40483U 15011B   21047.39583333 -.00001892  00000-0  00000-0 0  9999
2 40483  32.5680 118.4303 8450680  28.9567 334.0480  0.28549421 11978
MMS 3                   
1 40484U 15011C   21047.39583333 -.00001894  00000-0  00000-0 0  9992
2 40484  32.5614 118.4210 8451855  28.9683 334.0393  0.28538477 11654
MMS 4                   
1 40485U 15011D   21047.39583333 -.00001892  00000-0  00000-0 0  9991
2 40485  32.5685 118.4346 8450424  28.9624 334.0225  0.28549398 11860
ASTROSAT                
1 40930U 15052A   21052.03864431  .00000744  00000-0  15282-4 0  9995
2 40930   5.9979  10.3884 0008661 188.4630 171.5351 14.76372244291951
DAMPE                   
1 41173U 15078A   21052.56218105  .00000155  00000-0  92802-5 0  9992
2 41173  97.3427  47.0644 0015643  93.5161  15.5290 15.23962493288339
PISAT                   
1 41784U 16059B   21052.56252816  .00000104  00000-0  29012-4 0  9993
2 41784  97.9848 107.8229 0030726 246.9831 112.8130 14.63588976235341
HXMT (HUIYAN)           
1 42758U 17034A   21052.49708209  .00000360  00000-0  35914-4 0  9995
2 42758  43.0166 109.5501 0008453 159.1993 336.4716 15.09068377203490
FLYING LAPTOP           
1 42831U 17042G   21052.54852091  .00000801  00000-0  85654-4 0  9997
2 42831  97.4885 288.3099 0014312 167.7357 192.4236 14.91244096196415
PICSAT                  
1 43132U 18004X   21052.49007432  .00002549  00000-0  10400-3 0  9993
2 43132  97.4206 128.0587 0007685 253.5201 106.5193 15.25329637173007
ZHANGZHENG-1 (CSES)     
1 43194U 18015C   21052.60581294  .00001440  00000-0  68200-4 0  9990
2 43194  97.4607 180.9365 0012318 326.7178 161.0498 15.20907825169539
ICON                    
1 44628U 19068A   21052.55776147  .00000633  00000-0  41478-4 0  9990
2 44628  26.9887 208.2188 0018908 156.4798 203.6628 14.91857028 74666
SALSAT                  
1 46495U 20068K   21052.58526150 -.00000292  00000-0 -16892-4 0  9991
2 46495  97.6829 350.8436 0018095 100.5792 259.7476 15.03335780 21926
